[{"OBJECT_NAME":"KUIPER-00156","OBJECT_ID":"2025-217P","EPOCH":"2026-03-04T08:00:09.721440","MEAN_MOTION":14.79966243,"ECCENTRICITY":7.125e-5,"INCLINATION":51.903,"RA_OF_ASC_NODE":49.3068,"ARG_OF_PERICENTER":94.7866,"MEAN_ANOMALY":265.3178,"EPHEMERIS_TYPE":0,"CLASSIFICATION_TYPE":"U","NORAD_CAT_ID":65775,"ELEMENT_SET_NO":999,"REV_AT_EPOCH":2432,"BSTAR":0.0010393984,"MEAN_MOTION_DOT":7.718e-5,"MEAN_MOTION_DDOT":0},{"OBJECT_NAME":"KUIPER-00158","OBJECT_ID":"2025-217Q","EPOCH":"2026-03-04T04:50:51.486720","MEAN_MOTION":14.80474552,"ECCENTRICITY":0.00010574,"INCLINATION":51.8968,"RA_OF_ASC_NODE":69.7524,"ARG_OF_PERICENTER":41.7557,"MEAN_ANOMALY":318.3486,"EPHEMERIS_TYPE":0,"CLASSIFICATION_TYPE":"U","NORAD_CAT_ID":65776,"ELEMENT_SET_NO":999,"REV_AT_EPOCH":2403,"BSTAR":0.0010281551,"MEAN_MOTION_DOT":7.727e-5,"MEAN_MOTION_DDOT":0},{"OBJECT_NAME":"KUIPER-00163","OBJECT_ID":"2025-217R","EPOCH":"2026-03-04T14:00:01.999872","MEAN_MOTION":14.92575009,"ECCENTRICITY":0.00021491,"INCLINATION":51.8965,"RA_OF_ASC_NODE":70.0083,"ARG_OF_PERICENTER":69.6406,"MEAN_ANOMALY":108.6115,"EPHEMERIS_TYPE":0,"CLASSIFICATION_TYPE":"U","NORAD_CAT_ID":65777,"ELEMENT_SET_NO":999,"REV_AT_EPOCH":540,"BSTAR":0.0081989199,"MEAN_MOTION_DOT":0.00086017,"MEAN_MOTION_DDOT":0},{"OBJECT_NAME":"KUIPER-00165","OBJECT_ID":"2025-217S","EPOCH":"2026-03-04T09:21:52.507584","MEAN_MOTION":14.80003991,"ECCENTRICITY":8.943e-5,"INCLINATION":51.9012,"RA_OF_ASC_NODE":59.0309,"ARG_OF_PERICENTER":110.3797,"MEAN_ANOMALY":249.7261,"EPHEMERIS_TYPE":0,"CLASSIFICATION_TYPE":"U","NORAD_CAT_ID":65778,"ELEMENT_SET_NO":999,"REV_AT_EPOCH":2419,"BSTAR":0.00071895397,"MEAN_MOTION_DOT":5.273e-5,"MEAN_MOTION_DDOT":0},{"OBJECT_NAME":"KUIPER-00166","OBJECT_ID":"2025-217T","EPOCH":"2026-03-04T08:52:46.758432","MEAN_MOTION":14.79982865,"ECCENTRICITY":7.792e-5,"INCLINATION":51.9027,"RA_OF_ASC_NODE":46.6429,"ARG_OF_PERICENTER":112.6031,"MEAN_ANOMALY":247.5013,"EPHEMERIS_TYPE":0,"CLASSIFICATION_TYPE":"U","NORAD_CAT_ID":65779,"ELEMENT_SET_NO":999,"REV_AT_EPOCH":2436,"BSTAR":0.0011528817,"MEAN_MOTION_DOT":8.589e-5,"MEAN_MOTION_DDOT":0},{"OBJECT_NAME":"KUIPER-00167","OBJECT_ID":"2025-217U","EPOCH":"2026-03-04T07:29:13.097760","MEAN_MOTION":14.79981066,"ECCENTRICITY":6.004e-5,"INCLINATION":51.897,"RA_OF_ASC_NODE":69.3476,"ARG_OF_PERICENTER":47.1432,"MEAN_ANOMALY":312.958,"EPHEMERIS_TYPE":0,"CLASSIFICATION_TYPE":"U","NORAD_CAT_ID":65780,"ELEMENT_SET_NO":999,"REV_AT_EPOCH":2404,"BSTAR":0.0015691645,"MEAN_MOTION_DOT":0.00011776,"MEAN_MOTION_DDOT":0},{"OBJECT_NAME":"KUIPER-00168","OBJECT_ID":"2025-217V","EPOCH":"2026-03-04T09:33:31.830048","MEAN_MOTION":14.79921368,"ECCENTRICITY":8.905e-5,"INCLINATION":51.9019,"RA_OF_ASC_NODE":51.4983,"ARG_OF_PERICENTER":86.2031,"MEAN_ANOMALY":273.9033,"EPHEMERIS_TYPE":0,"CLASSIFICATION_TYPE":"U","NORAD_CAT_ID":65781,"ELEMENT_SET_NO":999,"REV_AT_EPOCH":2430,"BSTAR":5.4800776e-5,"MEAN_MOTION_DOT":1.96e-6,"MEAN_MOTION_DDOT":0},{"OBJECT_NAME":"KUIPER-00169","OBJECT_ID":"2025-217W","EPOCH":"2026-03-04T09:26:38.430240","MEAN_MOTION":14.7979762,"ECCENTRICITY":7.521e-5,"INCLINATION":51.9012,"RA_OF_ASC_NODE":56.5266,"ARG_OF_PERICENTER":101.9496,"MEAN_ANOMALY":258.155,"EPHEMERIS_TYPE":0,"CLASSIFICATION_TYPE":"U","NORAD_CAT_ID":65782,"ELEMENT_SET_NO":999,"REV_AT_EPOCH":2423,"BSTAR":0.00090984915,"MEAN_MOTION_DOT":6.7e-5,"MEAN_MOTION_DDOT":0},{"OBJECT_NAME":"KUIPER-00170","OBJECT_ID":"2025-217X","EPOCH":"2026-03-04T04:25:44.269824","MEAN_MOTION":14.79932354,"ECCENTRICITY":8.303e-5,"INCLINATION":51.8986,"RA_OF_ASC_NODE":62.4276,"ARG_OF_PERICENTER":89.0314,"MEAN_ANOMALY":271.0744,"EPHEMERIS_TYPE":0,"CLASSIFICATION_TYPE":"U","NORAD_CAT_ID":65783,"ELEMENT_SET_NO":999,"REV_AT_EPOCH":2413,"BSTAR":0.00081459527,"MEAN_MOTION_DOT":5.994e-5,"MEAN_MOTION_DDOT":0},{"OBJECT_NAME":"KUIPER-00172","OBJECT_ID":"2025-217Z","EPOCH":"2026-03-04T14:00:01.999872","MEAN_MOTION":14.89421882,"ECCENTRICITY":0.0002869,"INCLINATION":51.8976,"RA_OF_ASC_NODE":41.5055,"ARG_OF_PERICENTER":293.4387,"MEAN_ANOMALY":254.6925,"EPHEMERIS_TYPE":0,"CLASSIFICATION_TYPE":"U","NORAD_CAT_ID":65785,"ELEMENT_SET_NO":999,"REV_AT_EPOCH":295,"BSTAR":-0.18958493,"MEAN_MOTION_DOT":-0.01663121,"MEAN_MOTION_DDOT":0},{"OBJECT_NAME":"KUIPER-00173","OBJECT_ID":"2025-217AA","EPOCH":"2026-03-04T05:23:50.878752","MEAN_MOTION":14.82266183,"ECCENTRICITY":0.0001279,"INCLINATION":51.9015,"RA_OF_ASC_NODE":56.5807,"ARG_OF_PERICENTER":132.7696,"MEAN_ANOMALY":227.3375,"EPHEMERIS_TYPE":0,"CLASSIFICATION_TYPE":"U","NORAD_CAT_ID":65786,"ELEMENT_SET_NO":999,"REV_AT_EPOCH":2421,"BSTAR":0.00057214594,"MEAN_MOTION_DOT":4.389e-5,"MEAN_MOTION_DDOT":0},{"OBJECT_NAME":"KUIPER-00174","OBJECT_ID":"2025-217AB","EPOCH":"2026-03-04T08:44:56.832288","MEAN_MOTION":14.799244,"ECCENTRICITY":0.00011431,"INCLINATION":51.9037,"RA_OF_ASC_NODE":51.6721,"ARG_OF_PERICENTER":65.4548,"MEAN_ANOMALY":294.6533,"EPHEMERIS_TYPE":0,"CLASSIFICATION_TYPE":"U","NORAD_CAT_ID":65787,"ELEMENT_SET_NO":999,"REV_AT_EPOCH":2429,"BSTAR":0.0012366024,"MEAN_MOTION_DOT":9.217e-5,"MEAN_MOTION_DDOT":0},{"OBJECT_NAME":"KUIPER-00176","OBJECT_ID":"2025-217AC","EPOCH":"2026-03-04T09:58:37.312032","MEAN_MOTION":14.79950039,"ECCENTRICITY":0.00010661,"INCLINATION":51.9003,"RA_OF_ASC_NODE":66.4199,"ARG_OF_PERICENTER":62.1509,"MEAN_ANOMALY":297.9562,"EPHEMERIS_TYPE":0,"CLASSIFICATION_TYPE":"U","NORAD_CAT_ID":65788,"ELEMENT_SET_NO":999,"REV_AT_EPOCH":2409,"BSTAR":-5.5603182e-5,"MEAN_MOTION_DOT":-6.45e-6,"MEAN_MOTION_DDOT":0},{"OBJECT_NAME":"KUIPER-00101","OBJECT_ID":"2025-228A","EPOCH":"2026-03-04T07:01:48.800352","MEAN_MOTION":14.7993665,"ECCENTRICITY":5.883e-5,"INCLINATION":51.9013,"RA_OF_ASC_NODE":24.4415,"ARG_OF_PERICENTER":99.1192,"MEAN_ANOMALY":260.9837,"EPHEMERIS_TYPE":0,"CLASSIFICATION_TYPE":"U","NORAD_CAT_ID":65947,"ELEMENT_SET_NO":999,"REV_AT_EPOCH":2243,"BSTAR":0.00076356718,"MEAN_MOTION_DOT":5.605e-5,"MEAN_MOTION_DDOT":0},{"OBJECT_NAME":"KUIPER-00113","OBJECT_ID":"2025-228B","EPOCH":"2026-03-04T06:20:54.479616","MEAN_MOTION":14.79974571,"ECCENTRICITY":8.441e-5,"INCLINATION":51.8996,"RA_OF_ASC_NODE":19.5839,"ARG_OF_PERICENTER":100.4393,"MEAN_ANOMALY":259.6665,"EPHEMERIS_TYPE":0,"CLASSIFICATION_TYPE":"U","NORAD_CAT_ID":65948,"ELEMENT_SET_NO":999,"REV_AT_EPOCH":2249,"BSTAR":0.0011060268,"MEAN_MOTION_DOT":8.229e-5,"MEAN_MOTION_DDOT":0},{"OBJECT_NAME":"KUIPER-00117","OBJECT_ID":"2025-228C","EPOCH":"2026-03-04T07:05:42.862272","MEAN_MOTION":14.79950789,"ECCENTRICITY":9.415e-5,"INCLINATION":51.8995,"RA_OF_ASC_NODE":21.9491,"ARG_OF_PERICENTER":84.5381,"MEAN_ANOMALY":275.5689,"EPHEMERIS_TYPE":0,"CLASSIFICATION_TYPE":"U","NORAD_CAT_ID":65949,"ELEMENT_SET_NO":999,"REV_AT_EPOCH":2246,"BSTAR":0.0011688971,"MEAN_MOTION_DOT":8.705e-5,"MEAN_MOTION_DDOT":0},{"OBJECT_NAME":"KUIPER-00121","OBJECT_ID":"2025-228D","EPOCH":"2026-03-04T01:33:02.841408","MEAN_MOTION":14.79941915,"ECCENTRICITY":0.00013191,"INCLINATION":51.901,"RA_OF_ASC_NODE":17.9658,"ARG_OF_PERICENTER":100.2403,"MEAN_ANOMALY":259.8708,"EPHEMERIS_TYPE":0,"CLASSIFICATION_TYPE":"U","NORAD_CAT_ID":65950,"ELEMENT_SET_NO":999,"REV_AT_EPOCH":2250,"BSTAR":0.0010102189,"MEAN_MOTION_DOT":7.49e-5,"MEAN_MOTION_DDOT":0}]
